IRIDIUM 39              
1 25042U 97069D   25165.85030721  .00000502  00000+0  12636-3 0  9996
2 25042  86.3931 212.1326 0016160 320.7618  39.2414 14.49218306448628
IRIDIUM 38              
1 25043U 97069E   25165.66403656  .00000393  00000+0  12310-3 0  9994
2 25043  86.3969 234.2155 0004240  99.6512 260.5165 14.38116684445595
IRIDIUM 42              
1 25077U 97077A   25165.73680487  .00000329  00000+0  10565-3 0  9996
2 25077  86.3969 240.3515 0002981 101.1367 259.0165 14.36351263440845
IRIDIUM 44              
1 25078U 97077B   25165.69786369  .00000362  00000+0  10824-3 0  9993
2 25078  86.3975 222.3012 0003737  68.0197 292.1398 14.40241106443340
IRIDIUM 45              
1 25104U 97082A   25165.68998453  .00016953  00000+0  60774-3 0  9999
2 25104  86.3579  49.1079 0115671 342.4031  17.3219 15.22375655451666
IRIDIUM 24              
1 25105U 97082B   25165.74360054  .00000453  00000+0  13151-3 0  9992
2 25105  86.3902  81.3380 0013665  86.1594 274.1168 14.42097751442863
IRIDIUM 51              
1 25262U 98018A   25165.82127130  .00024639  00000+0  54985-3 0  9993
2 25262  86.3833  57.0059 0083475 258.9320 100.2538 15.39706082446668
IRIDIUM 57              
1 25273U 98019B   25165.94198281  .00000309  00000+0  99777-4 0  9991
2 25273  86.3970 146.2023 0002387  88.5177 271.6293 14.35892374424464
